{
    "links": {
        "self": "http://www.neowsapp.com/rest/v1/neo/3892711?api_key=iIulBulltgU6a56xZRHN4H3l9WmuAYTsLGpBGhQ2"
    },
    "id": "3892711",
    "neo_reference_id": "3892711",
    "name": "(2019 VC4)",
    "designation": "2019 VC4",
    "nasa_jpl_url": "http://ssd.jpl.nasa.gov/sbdb.cgi?sstr=3892711",
    "absolute_magnitude_h": 25.6,
    "estimated_diameter": {
        "kilometers": {
            "estimated_diameter_min": 0.0201629919,
            "estimated_diameter_max": 0.0450858206
        },
        "meters": {
            "estimated_diameter_min": 20.1629919443,
            "estimated_diameter_max": 45.0858206172
        },
        "miles": {
            "estimated_diameter_min": 0.0125286985,
            "estimated_diameter_max": 0.0280150214
        },
        "feet": {
            "estimated_diameter_min": 66.1515504905,
            "estimated_diameter_max": 147.9193637137
        }
    },
    "is_potentially_hazardous_asteroid": false,
    "close_approach_data": [
        {
            "close_approach_date": "2019-10-26",
            "close_approach_date_full": "2019-Oct-26 00:26",
            "epoch_date_close_approach": 1572049560000,
            "relative_velocity": {
                "kilometers_per_second": "8.48010951",
                "kilometers_per_hour": "30528.394236085",
                "miles_per_hour": "18969.1569629718"
            },
            "miss_distance": {
                "astronomical": "0.079519578",
                "lunar": "30.933115842",
                "kilometers": "11895959.49209886",
                "miles": "7391806.465769868"
            },
            "orbiting_body": "Earth"
        }
    ],
    "orbital_data": {
        "orbit_id": "3",
        "orbit_determination_date": "2019-11-18 05:03:06",
        "first_observation_date": "2019-11-05",
        "last_observation_date": "2019-11-18",
        "data_arc_in_days": 13,
        "observations_used": 25,
        "orbit_uncertainty": "8",
        "minimum_orbit_intersection": ".0785518",
        "jupiter_tisserand_invariant": "3.160",
        "epoch_osculation": "2458793.5",
        "eccentricity": ".5886063437411443",
        "semi_major_axis": "2.554144483027125",
        "inclination": "7.66050917238527",
        "ascending_node_longitude": "229.6636524786352",
        "orbital_period": "1490.962148759204",
        "perihelion_distance": "1.050758837485914",
        "perihelion_argument": "148.9242931342682",
        "aphelion_distance": "4.057530128568337",
        "perihelion_time": "2458771.414447729095",
        "mean_anomaly": "5.332663088826598",
        "mean_motion": ".2414548218407798",
        "equinox": "J2000",
        "orbit_class": {
            "orbit_class_type": "AMO",
            "orbit_class_description": "Near-Earth asteroid orbits similar to that of 1221 Amor",
            "orbit_class_range": "1.017 AU < q (perihelion) < 1.3 AU"
        }
    },
    "is_sentry_object": false
}